BEIDOU-2 IGSO-1 (C06)   
1 36828U 10036A   24088.69836557 -.00000095  00000+0  00000+0 0  9991
2 36828  54.2447 170.2992 0039842 197.9760 174.9659  1.00250323 50080
BEIDOU-2 G4 (C04)       
1 37210U 10057A   24088.87637691 -.00000102  00000+0  00000+0 0  9997
2 37210   1.6521  67.4653 0004557 208.9904  25.7188  1.00273923 49162
BEIDOU-2 IGSO-2 (C07)   
1 37256U 10068A   24088.89549700 -.00000179  00000+0  00000+0 0  9998
2 37256  49.0279 281.7925 0031834 209.7698 125.8901  1.00276195 48661
BEIDOU-2 IGSO-3 (C08)   
1 37384U 11013A   24088.80149035 -.00000173  00000+0  00000+0 0  9993
2 37384  61.2422  47.8865 0026254 182.7470 353.4848  1.00279215 47531
BEIDOU-2 IGSO-4 (C09)   
1 37763U 11038A   24088.91453681 -.00000054  00000+0  00000+0 0  9996
2 37763  54.5515 172.8880 0121981 227.8343 211.5409  1.00276159 46528
BEIDOU-2 IGSO-5 (C10)   
1 37948U 11073A   24088.51524146 -.00000128  00000+0  00000+0 0  9993
2 37948  49.1594 281.4789 0094075 219.4831 326.1341  1.00269816 45009
BEIDOU-2 G5 (C05)       
1 38091U 12008A   24088.86160515  .00000068  00000+0  00000+0 0  9998
2 38091   1.8794  70.0777 0009945 259.1008 226.4516  1.00269613 44240
BEIDOU-2 M3 (C11)       
1 38250U 12018A   24087.31561006 -.00000069  00000+0  00000+0 0  9997
2 38250  56.3900 332.0652 0021605 268.1057  91.7024  1.86231413 80827
BEIDOU-2 M4 (C12)       
1 38251U 12018B   24088.32006775 -.00000065  00000+0  00000+0 0  9993
2 38251  56.2973 331.3095 0012555 274.6849  85.2261  1.86232143 80849
BEIDOU-2 M6 (C14)       
1 38775U 12050B   24088.56646690  .00000027  00000+0  00000+0 0  9999
2 38775  55.8506  89.8562 0014588 328.8984  31.0360  1.86231170 78217
BEIDOU-2 G6 (C02)       
1 38953U 12059A   24088.87880462 -.00000165  00000+0  00000+0 0  9991
2 38953   2.3534  80.9954 0011125 303.7867 202.4155  1.00271296 41783
BEIDOU-3S IGSO-1S (C31) 
1 40549U 15019A   24088.56767231 -.00000149  00000+0  00000+0 0  9990
2 40549  50.7211 305.1387 0035567 191.7997 349.1100  1.00267035 32946
BEIDOU-3S M2S (C58)     
1 40748U 15037A   24087.98406497 -.00000065  00000+0  00000+0 0  9997
2 40748  55.5321 329.7922 0008573 265.3897  94.5665  1.86233238 59019
BEIDOU-3S M1S (C57)     
1 40749U 15037B   24088.25436636 -.00000065  00000+0  00000+0 0  9997
2 40749  55.5349 329.7698 0006073 351.4847   8.5588  1.86233081 59021
BEIDOU-3S IGSO-2S (C56) 
1 40938U 15053A   24088.87437973 -.00000116  00000+0  00000+0 0  9995
2 40938  50.4862 268.3369 0049140 187.6907 141.7724  1.00281329 31224
BEIDOU-2 IGSO-6 (C13)   
1 41434U 16021A   24088.92320392 -.00000145  00000+0  00000+0 0  9997
2 41434  59.0656  46.1603 0049778 225.3850 342.7700  1.00286410 29353
BEIDOU-2 G7 (C03)       
1 41586U 16037A   24088.88784192 -.00000343  00000+0  00000+0 0  9999
2 41586   1.7128  68.5040 0009905 324.6823 223.6698  1.00267019 28663
BEIDOU-3 M1 (C19)       
1 43001U 17069A   24088.33259279  .00000027  00000+0  00000+0 0  9990
2 43001  56.0006  89.9501 0012579 298.6335  61.2616  1.86231517 43507
BEIDOU-3 M2 (C20)       
1 43002U 17069B   24087.73270765  .00000026  00000+0  00000+0 0  9996
2 43002  55.9996  90.0058 0010130 316.5895  43.3547  1.86231100 43485
BEIDOU-3 M7 (C27)       
1 43107U 18003A   24088.01947021 -.00000067  00000+0  00000+0 0  9995
2 43107  54.9895 330.4175 0004956  57.6521 302.4491  1.86232494 42244
BEIDOU-3 M8 (C28)       
1 43108U 18003B   24087.95923522 -.00000067  00000+0  00000+0 0  9998
2 43108  54.9825 330.4055 0003052 282.5717  77.4475  1.86231028 42251
BEIDOU-3 M4 (C22)       
1 43207U 18018A   24087.32675102  .00000026  00000+0  00000+0 0  9997
2 43207  55.9587  90.0757 0006974 333.8499  26.1408  1.86231470 41626
BEIDOU-3 M3 (C21)       
1 43208U 18018B   24088.46721539  .00000027  00000+0  00000+0 0  9991
2 43208  55.9590  90.0421 0010254 307.4322  52.4959  1.86231483 41646
BEIDOU-3 M9 (C29)       
1 43245U 18029A   24088.15217990 -.00000064  00000+0  00000+0 0  9993
2 43245  54.8761 328.1287 0001136   2.4473 357.6062  1.86232787 40796
BEIDOU-3 M10 (C30)      
1 43246U 18029B   24088.08196705 -.00000064  00000+0  00000+0 0  9996
2 43246  54.8732 328.1588 0004974  11.2316 348.8327  1.86232874 40777
BEIDOU-2 IGSO-7 (C16)   
1 43539U 18057A   24088.63309102 -.00000108  00000+0  00000+0 0  9999
2 43539  55.1340 170.0727 0072701 232.1089 125.3152  1.00277735 21004
BEIDOU-3 M5 (C23)       
1 43581U 18062A   24088.30368508  .00000028  00000+0  00000+0 0  9991
2 43581  54.1436 209.8891 0002160 287.1473  72.8113  1.86228722 38533
BEIDOU-3 M6 (C24)       
1 43582U 18062B   24088.16989545  .00000027  00000+0  00000+0 0  9995
2 43582  54.1433 209.8831 0005316  33.0457 326.9689  1.86229512 38530
BEIDOU-3 M12 (C26)      
1 43602U 18067A   24088.64111290  .00000030  00000+0  00000+0 0  9994
2 43602  54.2329 208.5409 0007325  28.2887 331.7375  1.86231723 38027
BEIDOU-3 M11 (C25)      
1 43603U 18067B   24088.23805311  .00000028  00000+0  00000+0 0  9991
2 43603  54.2302 208.5198 0004070  21.8120 338.1895  1.86231603 38044
BEIDOU-3 M13 (C32)      
1 43622U 18072A   24088.73537244  .00000027  00000+0  00000+0 0  9999
2 43622  55.9307  89.5620 0009120 296.3651  63.5611  1.86231383 37560
BEIDOU-3 M14 (C33)      
1 43623U 18072B   24088.60082660  .00000027  00000+0  00000+0 0  9993
2 43623  55.9322  89.5596 0006665 314.1098  45.8555  1.86231407 37551
BEIDOU-3 M16 (C35)      
1 43647U 18078A   24087.69011420 -.00000065  00000+0  00000+0 0  9992
2 43647  54.7724 328.2496 0008272  16.4367 343.6438  1.86232392 37046
BEIDOU-3 M15 (C34)      
1 43648U 18078B   24087.81927903 -.00000065  00000+0  00000+0 0  9999
2 43648  54.7682 328.2483 0005335  24.3992 335.6796  1.86232274 37064
BEIDOU-3 G1 (C59)       
1 43683U 18085A   24088.90136902 -.00000268  00000+0  00000+0 0  9993
2 43683   1.9939 112.9044 0003126 323.8562 214.4980  1.00269247 19930
BEIDOU-3 M17 (C36)      
1 43706U 18093A   24087.96833472  .00000026  00000+0  00000+0 0  9990
2 43706  54.2265 209.8329 0007415 284.2982  75.5997  1.86228381 36438
BEIDOU-3 M18 (C37)      
1 43707U 18093B   24088.37126802  .00000029  00000+0  00000+0 0  9992
2 43707  54.2272 209.8109 0006064 320.2112  39.7270  1.86229833 36437
BEIDOU-3 IGSO-1 (C38)   
1 44204U 19023A   24088.75850457 -.00000204  00000+0  00000+0 0  9997
2 44204  57.5286  46.0656 0020116 216.0686 317.1742  1.00273593 18212
BEIDOU-2 G8 (C01)       
1 44231U 19027A   24088.90341340 -.00000237  00000+0  00000+0 0  9990
2 44231   1.7486  73.2993 0002552 176.9607  46.2846  1.00269589 17957
BEIDOU-3 IGSO-2 (C39)   
1 44337U 19035A   24088.77910366 -.00000108  00000+0  00000+0 0  9998
2 44337  55.1674 165.9743 0032588 206.1068 214.5183  1.00266322 17548
BEIDOU-3 M24 (C46)      
1 44542U 19061A   24088.44139996  .00000029  00000+0  00000+0 0  9992
2 44542  54.4541 210.0869 0007506   3.5703 356.4176  1.86231188 30694
BEIDOU-3 M23 (C45)      
1 44543U 19061B   24088.58287874  .00000030  00000+0  00000+0 0  9999
2 44543  54.4524 210.0514 0004343 354.0958  12.9012  1.86231631 30691
BEIDOU-3 IGSO-3 (C40)   
1 44709U 19073A   24087.95542094 -.00000158  00000+0  00000+0 0  9996
2 44709  56.1865 289.5793 0036156 179.4666 180.5354  1.00274324 16321
BEIDOU-3 M22 (C44)      
1 44793U 19078A   24088.28728372 -.00000064  00000+0  00000+0 0  9992
2 44793  54.6200 328.1709 0007259  23.1859 336.8994  1.86232142 29548
BEIDOU-3 M21 (C43)      
1 44794U 19078B   24087.34338709 -.00000067  00000+0  00000+0 0  9993
2 44794  54.5944 328.1814 0005098  16.8275 343.2433  1.86232697 29534
BEIDOU-3 M19 (C41)      
1 44864U 19090A   24088.45375056  .00000026  00000+0  00000+0 0  9998
2 44864  55.8645  89.7473 0020009 281.1229 296.5474  1.86231794 29138
BEIDOU-3 M20 (C42)      
1 44865U 19090B   24087.54337372  .00000025  00000+0  00000+0 0  9996
2 44865  55.8654  89.8108 0017820 292.5179 124.5431  1.86231766 29099
BEIDOU-3 G2 (C60)       
1 45344U 20017A   24088.87706839 -.00000131  00000+0  00000+0 0  9994
2 45344   2.2231  26.2689 0001499 313.2863 242.9946  1.00271225 15130
BEIDOU-3 G3 (C61)       
1 45807U 20040A   24088.63083163 -.00000344  00000+0  00000+0 0  9992
2 45807   0.6582  29.7404 0007060 302.5027 191.9402  1.00273379 13940
BEIDOU-3 G4             
1 56564U 23066A   24088.87637691 -.00000104  00000+0  00000+0 0  9996
2 56564   2.3263 288.2064 0003428 188.4320 185.6045  1.00273500  3276
BEIDOU-3 M25            
1 58654U 23207A   24087.42605841  .00000023  00000+0  00000+0 0  9996
2 58654  55.0455  89.8543 0005101 285.1815  74.7875  1.86232245  1729
BEIDOU-3 M26            
1 58655U 23207B   24088.29874014  .00000024  00000+0  00000+0 0  9994
2 58655  55.0482  89.8097 0005803 272.0526  87.9029  1.86231774  1720
